1 45659U 20035C   22365.09461032  .00005033  00000-0  35640-3 0  9994
2 45659  53.0526 254.6876 0001452 122.9932 237.1197 15.06416708142791
1 45659U 20035C   22365.42635433  .00007546  00000-0  52474-3 0  9994
2 45659  53.0496 253.1967 0001625 118.2136 241.9017 15.06412656143241
1 45659U 20035C   22365.42635433  .00007546  00000-0  52474-3 0  9994
2 45659  53.0496 253.1967 0001625 118.2136 241.9017 15.06412656142846
1 45659U 20035C   23001.15617373  .00002053  00000-0  15670-3 0  9990
2 45659  53.0522 249.9210 0001650 119.9934 240.1219 15.06399182142957
1 45659U 20035C   23001.42156494 -.00000468  00000-0 -12545-4 0  9991
2 45659  53.0533 248.7303 0001768  95.9067 264.2124 15.06393734143397
1 45659U 20035C   23001.95233831 -.00003781  00000-0 -23509-3 0  9992
2 45659  53.0516 246.3471 0001521 123.6554 236.4581 15.06393003143471
1 45659U 20035C   23001.95233831 -.00003781  00000-0 -23509-3 0  9992
2 45659  53.0516 246.3471 0001521 123.6554 236.4581 15.06393003143077
1 45659U 20035C   23002.15138096 -.00002332  00000-0 -13773-3 0  9995
2 45659  53.0532 245.4539 0001597 124.3082 235.8058 15.06401300143507
1 45659U 20035C   23002.94753920  .00000038  00000-0  21468-4 0  9991
2 45659  53.0528 241.8804 0001674 124.4567 235.6581 15.06399113143622
1 45659U 20035C   23002.94753920  .00000038  00000-0  21468-4 0  9991
2 45659  53.0528 241.8804 0001674 124.4567 235.6581 15.06399113143228
1 45659U 20035C   23003.08024106 -.00001048  00000-0 -51471-4 0  9995
2 45659  53.0528 241.2838 0001522 123.6101 236.5033 15.06389502143241
1 45659U 20035C   23003.34562696 -.00000373  00000-0 -61509-5 0  9999
2 45659  53.0528 240.0927 0001502 124.6261 235.4870 15.06393474143681
1 45659U 20035C   23004.40717303  .00003914  00000-0  28146-3 0  9994
2 45659  53.0516 235.3274 0001367 128.4302 231.6809 15.06405098143841
1 45659U 20035C   23004.40717303  .00003914  00000-0  28146-3 0  9994
2 45659  53.0516 235.3274 0001367 128.4302 231.6809 15.06405098143447
1 45659U 20035C   23004.73890986  .00003696  00000-0  26693-3 0  9991
2 45659  53.0515 233.8381 0001680 128.9173 231.1966 15.06399344143891
1 45659U 20035C   23005.00429473  .00002120  00000-0  16113-3 0  9998
2 45659  53.0512 232.6468 0001448 129.4070 230.7048 15.06402575143533
1 45659U 20035C   23005.60141112  .00003723  00000-0  26864-3 0  9999
2 45659  53.0511 229.9650 0001480 127.1951 232.9173 15.06410343144023
1 45659U 20035C   23005.73410299  .00003648  00000-0  26359-3 0  9993
2 45659  53.0507 229.3698 0001420 127.9113 232.2004 15.06411737144042
1 45659U 20035C   23006.39757535 -.00000262  00000-0  13332-5 0  9992
2 45659  53.0499 226.3899 0001785 137.8331 222.2795 15.06397295143742
1 45659U 20035C   23006.72931227 -.00000235  00000-0  31508-5 0  9996
2 45659  53.0511 224.9019 0001477 131.3595 228.7521 15.06396147144197
1 45659U 20035C   23007.85722264 -.00002073  00000-0 -12038-3 0  9998
2 45659  53.0528 219.8393 0001261 127.9441 232.1662 15.06388196144364
1 45659U 20035C   23007.85722264 -.00002073  00000-0 -12038-3 0  9998
2 45659  53.0528 219.8393 0001261 127.9441 232.1662 15.06388196143969
1 45659U 20035C   23008.45433782  .00001895  00000-0  14609-3 0  9994
2 45659  53.0537 217.1586 0001410 138.1000 222.0097 15.06394315144056
1 45659U 20035C   23008.58703321  .00001902  00000-0  14654-3 0  9996
2 45659  53.0519 216.5615 0001509 125.5098 234.6032 15.06394184144476
1 45659U 20035C   23008.85242202  .00003322  00000-0  24179-3 0  9993
2 45659  53.0506 215.3703 0001546 125.0239 235.0895 15.06397968144510
1 45659U 20035C   23009.25050091  .00004043  00000-0  29014-3 0  9995
2 45659  53.0507 213.5830 0001625 129.7535 230.3597 15.06403064144578
1 45659U 20035C   23010.24570651  .00001254  00000-0  10307-3 0  9991
2 45659  53.0508 209.1153 0001546 125.2898 234.8236 15.06398633144320
1 45659U 20035C   23010.37839877  .00001150  00000-0  96079-4 0  9999
2 45659  53.0506 208.5197 0001547 125.7899 234.3233 15.06400862144742
1 45659U 20035C   23010.84282512  .00000824  00000-0  74191-4 0  9997
2 45659  53.0507 206.4345 0001498 126.4640 233.6487 15.06401374144812
1 45659U 20035C   23011.30725500 -.00000724  00000-0 -29691-4 0  9994
2 45659  53.0513 204.3496 0001356 128.1855 231.9256 15.06397193144888
1 45659U 20035C   23011.30725500 -.00000724  00000-0 -29691-4 0  9994
2 45659  53.0513 204.3496 0001356 128.1855 231.9256 15.06397193144484
1 45659U 20035C   23011.63898097  .00003644  00000-0  26330-3 0  9990
2 45659  53.0508 202.8600 0001609 125.1638 234.9502 15.06411954144530
1 45659U 20035C   23011.90435363  .00008940  00000-0  61771-3 0  9995
2 45659  53.0515 201.6687 0001315 112.0802 248.0326 15.06433687144977
1 45659U 20035C   23011.90435363  .00008940  00000-0  61771-3 0  9995
2 45659  53.0515 201.6687 0001315 112.0802 248.0326 15.06433687144573
1 45659U 20035C   23012.76688033 -.00001497  00000-0 -81632-4 0  9995
2 45659  53.0520 197.7966 0001177 106.3233 253.7886 15.06392604144706
1 45659U 20035C   23012.89957416 -.00000946  00000-0 -44671-4 0  9993
2 45659  53.0529 197.2009 0001057 102.8673 257.2434 15.06393525145122
1 45659U 20035C   23013.49669804 -.00003767  00000-0 -23421-3 0  9994
2 45659  53.0527 194.5187 0001163 115.3844 244.7265 15.06392099145212
1 45659U 20035C   23013.76208711 -.00003028  00000-0 -18455-3 0  9991
2 45659  53.0527 193.3274 0001164 112.6359 247.4753 15.06391344145256
1 45659U 20035C   23014.22650873 -.00006664  00000-0 -42879-3 0  9999
2 45659  53.0530 191.2431 0001223  91.4610 268.6519 15.06407370144927
1 45659U 20035C   23014.49190817  .00003501  00000-0  25387-3 0  9995
2 45659  53.0528 190.0516 0001270  92.4378 267.6756 15.06391171144966
1 45659U 20035C   23015.48710364 -.00001006  00000-0 -48630-4 0  9997
2 45659  53.0529 185.5845 0001652  99.7042 260.4134 15.06393639145113
1 45659U 20035C   23015.61979675 -.00000745  00000-0 -31159-4 0  9991
2 45659  53.0529 184.9889 0001094  85.6578 274.4536 15.06394743145536
1 45659U 20035C   23015.81883170 -.00001221  00000-0 -63052-4 0  9994
2 45659  53.0529 184.0953 0001263  86.9071 273.2063 15.06406722145565
1 45659U 20035C   23016.54865668 -.00004493  00000-0 -28301-3 0  9998
2 45659  53.0526 180.8190 0001254  87.7710 272.3423 15.06386524145677
1 45659U 20035C   23016.81404595 -.00001584  00000-0 -87497-4 0  9996
2 45659  53.0528 179.6280 0001237  86.3177 273.7954 15.06391968145715
1 45659U 20035C   23016.81404595 -.00001584  00000-0 -87497-4 0  9996
2 45659  53.0528 179.6280 0001237  86.3177 273.7954 15.06391968145311
1 45659U 20035C   23017.41114365 -.00020900  00000-0 -13873-2 0  9994
2 45659  53.0528 176.9471 0001060  73.3495 286.7611 15.06427194145805
1 45659U 20035C   23017.41114365 -.00020900  00000-0 -13873-2 0  9994
2 45659  53.0528 176.9471 0001060  73.3495 286.7611 15.06427194145401
1 45659U 20035C   23017.87560253  .00003090  00000-0  22628-3 0  9993
2 45659  53.0528 174.8624 0001215  86.7215 273.3913 15.06390683145878
1 45659U 20035C   23017.87560253  .00003090  00000-0  22628-3 0  9993
2 45659  53.0528 174.8624 0001215  86.7215 273.3913 15.06390683145474
1 45659U 20035C   23018.47272769  .00004602  00000-0  32767-3 0  9997
2 45659  53.0519 172.1817 0001332  78.9876 281.1263 15.06394435145963
1 45659U 20035C   23018.60546309 -.00013112  00000-0 -86513-3 0  9992
2 45659  53.0533 171.5858 0001437  67.6419 292.4722 15.06308418145580
1 45659U 20035C   23018.67176169  .00006165  00000-0  43234-3 0  9993
2 45659  53.0534 171.2879 0001241 100.7715 259.3414 15.06405284145996
1 45659U 20035C   23018.67176169  .00006165  00000-0  43234-3 0  9993
2 45659  53.0534 171.2879 0001241 100.7715 259.3414 15.06405284145592
1 45659U 20035C   23019.13620153 -.00000882  00000-0 -40342-4 0  9992
2 45659  53.0528 169.2035 0001284  91.0892 269.0244 15.06383083145660
1 45659U 20035C   23019.40158868 -.00000337  00000-0 -37393-5 0  9999
2 45659  53.0527 168.0122 0001155  89.0461 271.0660 15.06387285146102
1 45659U 20035C   23019.79965850  .00002844  00000-0  20971-3 0  9993
2 45659  53.0545 166.2244 0001261 115.8428 244.2691 15.06407512145769
1 45659U 20035C   23020.13139888  .00001734  00000-0  13531-3 0  9998
2 45659  53.0519 164.7356 0001445  83.1573 276.9580 15.06398905145819
1 45659U 20035C   23020.39678552  .00001901  00000-0  14650-3 0  9991
2 45659  53.0533 163.5447 0001319  89.5376 270.5764 15.06399444146256
1 45659U 20035C   23021.39198821  .00003132  00000-0  22909-3 0  9992
2 45659  53.0529 159.0765 0001340  88.6552 271.4591 15.06399584146000
1 45659U 20035C   23021.65737078  .00005275  00000-0  37266-3 0  9996
2 45659  53.0534 157.8860 0001147  82.9296 277.1823 15.06410557146044
1 45659U 20035C   23022.38718973  .00000369  00000-0  43683-4 0  9990
2 45659  53.0540 154.6101 0000934  81.9948 278.1147 15.06397003146152
1 45659U 20035C   23023.44874188  .00000367  00000-0  43537-4 0  9995
2 45659  53.0542 149.8441 0001168  86.0520 274.0602 15.06392308146311
1 45659U 20035C   23024.51029352  .00004269  00000-0  30532-3 0  9994
2 45659  53.0537 145.0788 0001181  83.7507 276.3616 15.06397907146478
1 45659U 20035C   23025.50549930  .00005884  00000-0  41356-3 0  9993
2 45659  53.0535 140.6117 0001030  92.9146 267.1961 15.06399845146628
1 45659U 20035C   23025.57184603  .00007814  00000-0  54285-3 0  9992
2 45659  53.0538 140.3136 0001109  93.3311 266.7804 15.06401979147034
1 45659U 20035C   23025.63819257  .00010185  00000-0  70158-3 0  9991
2 45659  53.0539 140.0158 0001081  90.6380 269.4732 15.06405327147043
1 45659U 20035C   23026.56705179  .00008446  00000-0  58519-3 0  9995
2 45659  53.0541 135.8464 0001303  82.3043 277.8093 15.06403409147186
1 45659U 20035C   23026.56705179  .00008446  00000-0  58519-3 0  9995
2 45659  53.0541 135.8464 0001303  82.3043 277.8093 15.06403409146781
1 45659U 20035C   23027.56225219  .00005080  00000-0  35964-3 0  9998
2 45659  53.0547 131.3809 0001465  72.6356 287.4793 15.06408136146932
1 45659U 20035C   23028.55745589 -.00000229  00000-0  34908-5 0  9995
2 45659  53.0541 126.9111 0001349  85.0742 275.0401 15.06397427147086
1 45659U 20035C   23029.28727780  .00000727  00000-0  67722-4 0  9990
2 45659  53.0562 123.6345 0001196  96.5946 263.5179 15.06388989147194
1 45659U 20035C   23029.41996603 -.00003603  00000-0 -22302-3 0  9999
2 45659  53.0561 123.0388 0001888  91.8263 268.2942 15.06408691147218
1 45659U 20035C   23029.68535281 -.00000107  00000-0  11744-4 0  9993
2 45659  53.0561 121.8470 0001431 105.5990 254.5157 15.06400470147651
1 45659U 20035C   23030.28248081  .00000550  00000-0  55793-4 0  9993
2 45659  53.0556 119.1655 0001406  98.3078 261.8070 15.06391879147341
1 45659U 20035C   23030.48151911  .00000983  00000-0  84883-4 0  9992
2 45659  53.0548 118.2731 0001210  90.7908 269.3220 15.06394934147770
1 45659U 20035C   23031.47671844  .00001333  00000-0  10833-3 0  9997
2 45659  53.0548 113.8061 0001114  94.7562 265.3554 15.06401572147920
1 45659U 20035C   23031.47671844  .00001333  00000-0  10833-3 0  9997
2 45659  53.0548 113.8061 0001114  94.7562 265.3554 15.06401572147526
